0 DIRECTV 5 (TEMPO 1)
1 27426U 02023A   13282.36927689 -.00000070  00000-0  10000-3 0  2652
2 27426 000.0020 168.0434 0003177 020.4501 212.5134 01.00271832 41862
0 DIRECTV 5 (TEMPO 1)
1 27426U 02023A   13283.37741024 -.00000073  00000-0  10000-3 0  2665
2 27426 000.0026 164.4651 0003178 024.1390 216.3237 01.00271871 41877
0 DIRECTV 5 (TEMPO 1)
1 27426U 02023A   13286.43862573 -.00000080  00000-0  10000-3 0  2677
2 27426 000.0160 241.8718 0003471 313.3944 234.6889 01.00269879 41909
0 DIRECTV 5 (TEMPO 1)
1 27426U 02023A   13287.36786005 -.00000081  00000-0  10000-3 0  2687
2 27426 000.0136 238.5548 0003344 343.7113 183.1118 01.00270682 41918
0 DIRECTV 5 (TEMPO 1)
1 27426U 02023A   13287.60932049 -.00000081  00000-0  10000-3 0  2696
2 27426 000.0117 240.0566 0004006 317.1078 295.3960 01.00270660 41913
0 DIRECTV 5 (TEMPO 1)
1 27426U 02023A   13288.89504279 -.00000080  00000-0  10000-3 0  2709
2 27426 000.0096 232.6650 0003760 325.5988 038.4195 01.00271014 41920
0 DIRECTV 5 (TEMPO 1)
1 27426U 02023A   13290.35076873 -.00000078  00000-0  10000-3 0  2715
2 27426 000.0067 230.3715 0003582 332.1340 199.6745 01.00271621 41940
0 DIRECTV 5 (TEMPO 1)
1 27426U 02023A   13291.36412560 -.00000076  00000-0  10000-3 0  2723
2 27426 000.0048 226.9955 0003482 337.9814 203.0140 01.00272033 41952
0 DIRECTV 5 (TEMPO 1)
1 27426U 02023A   13292.41732612 -.00000074  00000-0  10000-3 0  2732
2 27426 000.0022 222.7406 0003450 343.2055 222.2388 01.00272289 41962
0 DIRECTV 5 (TEMPO 1)
1 27426U 02023A   13293.50088132 -.00000072  00000-0  10000-3 0  2743
2 27426 000.0002 204.0917 0003431 002.4391 252.8055 01.00272465 41973
0 DIRECTV 5 (TEMPO 1)
1 27426U 02023A   13294.39375955 -.00000071  00000-0  10000-3 0  2753
2 27426 000.0002 324.9171 0003420 241.9548 214.7837 01.00272586 41989
0 DIRECTV 5 (TEMPO 1)
1 27426U 02023A   13295.40174804 -.00000069  00000-0  10000-3 0  2764
2 27426 000.0011 165.3175 0003409 041.5725 218.6378 01.00272673 41999
